
# Worst residual: 126.84 km
# MJD 60675.000000 (2024 Dec 31  0:00)
C1AUGE1 = ZTF0Edd = 'Multijunk'
1 89983U 00000AAQ 24366.49919926  .00000000  00000-0  00000-0 0 22116
2 89983 019.0814 337.5454 8018646 300.7182 102.5278 00.36384463    09
